STARLINK-11187 [DTC]    
1 60184U 24124B   25210.19555932  .00004532  00000+0  42237-4 0  9996
2 60184  53.1575 182.8678 0001082  88.7856 271.3285 15.69715154 62617
STARLINK-11180 [DTC]    
1 60185U 24124C   25209.36295071  .00001205  00000+0  14801-4 0  9999
2 60185  53.1592 186.9160 0001120  85.2692 274.8453 15.69712053 62497
STARLINK-11197 [DTC]    
1 60186U 24124D   25210.18574060  .00001224  00000+0  14959-4 0  9995
2 60186  53.1594 182.8039 0001325 111.2116 248.9044 15.69715714 62617
STARLINK-11194 [DTC]    
1 60187U 24124E   25210.18083926 -.00000123  00000+0  38469-5 0  9993
2 60187  53.1593 182.7687 0001166  97.3196 262.7954 15.69713385 62627
STARLINK-11189 [DTC]    
1 60188U 24124F   25209.34834443 -.00001230  00000+0 -53029-5 0  9998
2 60188  53.1584 187.5503 0001006  89.8962 270.2171 15.69702816 61292
STARLINK-11183 [DTC]    
1 60189U 24124G   25210.17112563  .00001119  00000+0  14085-4 0  9996
2 60189  53.1588 183.4385 0001066  92.6771 267.4369 15.69718351 62385
STARLINK-11179 [DTC]    
1 60190U 24124H   25210.16621743 -.00000676  00000+0 -72228-6 0  9996
2 60190  53.1584 183.4065 0001066  84.4876 275.6263 15.69726538 62394
STARLINK-11175 [DTC]    
1 60191U 24124J   25210.22499284  .00002906  00000+0  28833-4 0  9994
2 60191  53.1572 183.0584 0001175  88.9851 271.1302 15.69713904 62610
STARLINK-11173 [DTC]    
1 60192U 24124K   25210.22007775  .00000489  00000+0  88916-5 0  9998
2 60192  53.1590 183.0274 0001159  92.1469 267.9681 15.69725707 62618
STARLINK-11172 [DTC]    
1 60193U 24124L   25210.21517106  .00000250  00000+0  69167-5 0  9995
2 60193  53.1590 182.9931 0001125  83.2763 276.8383 15.69725079 62551
STARLINK-11152 [DTC]    
1 60194U 24124M   25209.63724803  .00000564  00000+0  95115-5 0  9994
2 60194  53.1592 185.7840 0000978  81.0810 279.0318 15.69715447 62537
STARLINK-11193 [DTC]    
1 60195U 24124N   25210.20536161  .00001011  00000+0  13196-4 0  9994
2 60195  53.1579 182.9280 0000967  90.0591 270.0538 15.69717764 62623
STARLINK-31869          
1 60196U 24124P   25209.89989152  .00000478  00000+0  28274-4 0  9999
2 60196  53.1600 281.8990 0001176  93.6452 266.4683 15.30197452 61111
STARLINK-32023          
1 60197U 24124Q   25209.93471361  .00000355  00000+0  24111-4 0  9993
2 60197  53.1588 282.1140 0001285  83.7052 276.4095 15.30199012 61128
STARLINK-32046          
1 60198U 24124R   25209.51962371 -.00001582  00000+0 -41347-4 0  9999
2 60198  53.1595 283.7878 0000989  97.9507 262.1606 15.30175522 61203
STARLINK-32049          
1 60199U 24124S   25209.46803144 -.00002017  00000+0 -56040-4 0  9996
2 60199  53.1600 284.1787 0001192  74.2790 285.8342 15.30174555 61196
