[{"OBJECT_NAME":"STARLINK-11187 [DTC]","OBJECT_ID":"2024-124B","EPOCH":"2025-07-29T04:41:36.325248","MEAN_MOTION":15.69715154,"ECCENTRICITY":0.0001082,"INCLINATION":53.1575,"RA_OF_ASC_NODE":182.8678,"ARG_OF_PERICENTER":88.7856,"MEAN_ANOMALY":271.3285,"EPHEMERIS_TYPE":0,"CLASSIFICATION_TYPE":"U","NORAD_CAT_ID":60184,"ELEMENT_SET_NO":999,"REV_AT_EPOCH":6261,"BSTAR":4.2237e-5,"MEAN_MOTION_DOT":4.532e-5,"MEAN_MOTION_DDOT":0},{"OBJECT_NAME":"STARLINK-11180 [DTC]","OBJECT_ID":"2024-124C","EPOCH":"2025-07-28T08:42:38.941344","MEAN_MOTION":15.69712053,"ECCENTRICITY":0.000112,"INCLINATION":53.1592,"RA_OF_ASC_NODE":186.916,"ARG_OF_PERICENTER":85.2692,"MEAN_ANOMALY":274.8453,"EPHEMERIS_TYPE":0,"CLASSIFICATION_TYPE":"U","NORAD_CAT_ID":60185,"ELEMENT_SET_NO":999,"REV_AT_EPOCH":6249,"BSTAR":1.4801e-5,"MEAN_MOTION_DOT":1.205e-5,"MEAN_MOTION_DDOT":0},{"OBJECT_NAME":"STARLINK-11197 [DTC]","OBJECT_ID":"2024-124D","EPOCH":"2025-07-29T04:27:27.987840","MEAN_MOTION":15.69715714,"ECCENTRICITY":0.0001325,"INCLINATION":53.1594,"RA_OF_ASC_NODE":182.8039,"ARG_OF_PERICENTER":111.2116,"MEAN_ANOMALY":248.9044,"EPHEMERIS_TYPE":0,"CLASSIFICATION_TYPE":"U","NORAD_CAT_ID":60186,"ELEMENT_SET_NO":999,"REV_AT_EPOCH":6261,"BSTAR":1.4959e-5,"MEAN_MOTION_DOT":1.224e-5,"MEAN_MOTION_DDOT":0},{"OBJECT_NAME":"STARLINK-11194 [DTC]","OBJECT_ID":"2024-124E","EPOCH":"2025-07-29T04:20:24.512064","MEAN_MOTION":15.69713385,"ECCENTRICITY":0.0001166,"INCLINATION":53.1593,"RA_OF_ASC_NODE":182.7687,"ARG_OF_PERICENTER":97.3196,"MEAN_ANOMALY":262.7954,"EPHEMERIS_TYPE":0,"CLASSIFICATION_TYPE":"U","NORAD_CAT_ID":60187,"ELEMENT_SET_NO":999,"REV_AT_EPOCH":6262,"BSTAR":3.8469e-6,"MEAN_MOTION_DOT":-1.23e-6,"MEAN_MOTION_DDOT":0},{"OBJECT_NAME":"STARLINK-11189 [DTC]","OBJECT_ID":"2024-124F","EPOCH":"2025-07-28T08:21:36.958752","MEAN_MOTION":15.69702816,"ECCENTRICITY":0.0001006,"INCLINATION":53.1584,"RA_OF_ASC_NODE":187.5503,"ARG_OF_PERICENTER":89.8962,"MEAN_ANOMALY":270.2171,"EPHEMERIS_TYPE":0,"CLASSIFICATION_TYPE":"U","NORAD_CAT_ID":60188,"ELEMENT_SET_NO":999,"REV_AT_EPOCH":6129,"BSTAR":-5.3029e-6,"MEAN_MOTION_DOT":-1.23e-5,"MEAN_MOTION_DDOT":0},{"OBJECT_NAME":"STARLINK-11183 [DTC]","OBJECT_ID":"2024-124G","EPOCH":"2025-07-29T04:06:25.254432","MEAN_MOTION":15.69718351,"ECCENTRICITY":0.0001066,"INCLINATION":53.1588,"RA_OF_ASC_NODE":183.4385,"ARG_OF_PERICENTER":92.6771,"MEAN_ANOMALY":267.4369,"EPHEMERIS_TYPE":0,"CLASSIFICATION_TYPE":"U","NORAD_CAT_ID":60189,"ELEMENT_SET_NO":999,"REV_AT_EPOCH":6238,"BSTAR":1.4085e-5,"MEAN_MOTION_DOT":1.119e-5,"MEAN_MOTION_DDOT":0},{"OBJECT_NAME":"STARLINK-11179 [DTC]","OBJECT_ID":"2024-124H","EPOCH":"2025-07-29T03:59:21.185952","MEAN_MOTION":15.69726538,"ECCENTRICITY":0.0001066,"INCLINATION":53.1584,"RA_OF_ASC_NODE":183.4065,"ARG_OF_PERICENTER":84.4876,"MEAN_ANOMALY":275.6263,"EPHEMERIS_TYPE":0,"CLASSIFICATION_TYPE":"U","NORAD_CAT_ID":60190,"ELEMENT_SET_NO":999,"REV_AT_EPOCH":6239,"BSTAR":-7.2228e-7,"MEAN_MOTION_DOT":-6.76e-6,"MEAN_MOTION_DDOT":0},{"OBJECT_NAME":"STARLINK-11175 [DTC]","OBJECT_ID":"2024-124J","EPOCH":"2025-07-29T05:23:59.381376","MEAN_MOTION":15.69713904,"ECCENTRICITY":0.0001175,"INCLINATION":53.1572,"RA_OF_ASC_NODE":183.0584,"ARG_OF_PERICENTER":88.9851,"MEAN_ANOMALY":271.1302,"EPHEMERIS_TYPE":0,"CLASSIFICATION_TYPE":"U","NORAD_CAT_ID":60191,"ELEMENT_SET_NO":999,"REV_AT_EPOCH":6261,"BSTAR":2.8833e-5,"MEAN_MOTION_DOT":2.906e-5,"MEAN_MOTION_DDOT":0},{"OBJECT_NAME":"STARLINK-11173 [DTC]","OBJECT_ID":"2024-124K","EPOCH":"2025-07-29T05:16:54.717600","MEAN_MOTION":15.69725707,"ECCENTRICITY":0.0001159,"INCLINATION":53.159,"RA_OF_ASC_NODE":183.0274,"ARG_OF_PERICENTER":92.1469,"MEAN_ANOMALY":267.9681,"EPHEMERIS_TYPE":0,"CLASSIFICATION_TYPE":"U","NORAD_CAT_ID":60192,"ELEMENT_SET_NO":999,"REV_AT_EPOCH":6261,"BSTAR":8.8916e-6,"MEAN_MOTION_DOT":4.89e-6,"MEAN_MOTION_DDOT":0},{"OBJECT_NAME":"STARLINK-11172 [DTC]","OBJECT_ID":"2024-124L","EPOCH":"2025-07-29T05:09:50.779584","MEAN_MOTION":15.69725079,"ECCENTRICITY":0.0001125,"INCLINATION":53.159,"RA_OF_ASC_NODE":182.9931,"ARG_OF_PERICENTER":83.2763,"MEAN_ANOMALY":276.8383,"EPHEMERIS_TYPE":0,"CLASSIFICATION_TYPE":"U","NORAD_CAT_ID":60193,"ELEMENT_SET_NO":999,"REV_AT_EPOCH":6255,"BSTAR":6.9167e-6,"MEAN_MOTION_DOT":2.5e-6,"MEAN_MOTION_DDOT":0},{"OBJECT_NAME":"STARLINK-11152 [DTC]","OBJECT_ID":"2024-124M","EPOCH":"2025-07-28T15:17:38.229792","MEAN_MOTION":15.69715447,"ECCENTRICITY":9.78e-5,"INCLINATION":53.1592,"RA_OF_ASC_NODE":185.784,"ARG_OF_PERICENTER":81.081,"MEAN_ANOMALY":279.0318,"EPHEMERIS_TYPE":0,"CLASSIFICATION_TYPE":"U","NORAD_CAT_ID":60194,"ELEMENT_SET_NO":999,"REV_AT_EPOCH":6253,"BSTAR":9.5115e-6,"MEAN_MOTION_DOT":5.64e-6,"MEAN_MOTION_DDOT":0},{"OBJECT_NAME":"STARLINK-11193 [DTC]","OBJECT_ID":"2024-124N","EPOCH":"2025-07-29T04:55:43.243104","MEAN_MOTION":15.69717764,"ECCENTRICITY":9.67e-5,"INCLINATION":53.1579,"RA_OF_ASC_NODE":182.928,"ARG_OF_PERICENTER":90.0591,"MEAN_ANOMALY":270.0538,"EPHEMERIS_TYPE":0,"CLASSIFICATION_TYPE":"U","NORAD_CAT_ID":60195,"ELEMENT_SET_NO":999,"REV_AT_EPOCH":6262,"BSTAR":1.3196e-5,"MEAN_MOTION_DOT":1.011e-5,"MEAN_MOTION_DDOT":0},{"OBJECT_NAME":"STARLINK-31869","OBJECT_ID":"2024-124P","EPOCH":"2025-07-28T21:35:50.627328","MEAN_MOTION":15.30197452,"ECCENTRICITY":0.0001176,"INCLINATION":53.16,"RA_OF_ASC_NODE":281.899,"ARG_OF_PERICENTER":93.6452,"MEAN_ANOMALY":266.4683,"EPHEMERIS_TYPE":0,"CLASSIFICATION_TYPE":"U","NORAD_CAT_ID":60196,"ELEMENT_SET_NO":999,"REV_AT_EPOCH":6111,"BSTAR":2.8274e-5,"MEAN_MOTION_DOT":4.78e-6,"MEAN_MOTION_DDOT":0},{"OBJECT_NAME":"STARLINK-32023","OBJECT_ID":"2024-124Q","EPOCH":"2025-07-28T22:25:59.255904","MEAN_MOTION":15.30199012,"ECCENTRICITY":0.0001285,"INCLINATION":53.1588,"RA_OF_ASC_NODE":282.114,"ARG_OF_PERICENTER":83.7052,"MEAN_ANOMALY":276.4095,"EPHEMERIS_TYPE":0,"CLASSIFICATION_TYPE":"U","NORAD_CAT_ID":60197,"ELEMENT_SET_NO":999,"REV_AT_EPOCH":6112,"BSTAR":2.4111e-5,"MEAN_MOTION_DOT":3.55e-6,"MEAN_MOTION_DDOT":0},{"OBJECT_NAME":"STARLINK-32046","OBJECT_ID":"2024-124R","EPOCH":"2025-07-28T12:28:15.488544","MEAN_MOTION":15.30175522,"ECCENTRICITY":9.89e-5,"INCLINATION":53.1595,"RA_OF_ASC_NODE":283.7878,"ARG_OF_PERICENTER":97.9507,"MEAN_ANOMALY":262.1606,"EPHEMERIS_TYPE":0,"CLASSIFICATION_TYPE":"U","NORAD_CAT_ID":60198,"ELEMENT_SET_NO":999,"REV_AT_EPOCH":6120,"BSTAR":-4.1347e-5,"MEAN_MOTION_DOT":-1.582e-5,"MEAN_MOTION_DDOT":0},{"OBJECT_NAME":"STARLINK-32049","OBJECT_ID":"2024-124S","EPOCH":"2025-07-28T11:13:57.916416","MEAN_MOTION":15.30174555,"ECCENTRICITY":0.0001192,"INCLINATION":53.16,"RA_OF_ASC_NODE":284.1787,"ARG_OF_PERICENTER":74.279,"MEAN_ANOMALY":285.8342,"EPHEMERIS_TYPE":0,"CLASSIFICATION_TYPE":"U","NORAD_CAT_ID":60199,"ELEMENT_SET_NO":999,"REV_AT_EPOCH":6119,"BSTAR":-5.604e-5,"MEAN_MOTION_DOT":-2.017e-5,"MEAN_MOTION_DDOT":0}]
